SL-3 R/B                
1 13403U 82079B   26005.45288096  .00007448  00000+0  30417-3 0  9992
2 13403  81.1472 267.7053 0026081  22.5622 337.6751 15.23931440368069
SL-14 R/B               
1 13553U 82092B   26005.50257833  .00000716  00000+0  77677-4 0  9995
2 13553  82.5668 200.4872 0021109 147.3836 241.8401 14.86584048319542
SL-3 R/B                
1 13819U 83010B   26005.30011479  .00017937  00000+0  38773-3 0  9999
2 13819  81.1040  79.8465 0016195 266.5146  93.4245 15.44228349348159
SL-3 R/B                
1 14208U 83075B   26005.49443563  .00013701  00000+0  38028-3 0  9994
2 14208  97.6108   7.7843 0024549  95.2590 265.1455 15.36723475320445
COSMOS 1536             
1 14699U 84013A   26005.46416554  .00010310  00000+0  43717-3 0  9992
2 14699  82.5454 170.6310 0015332 141.3255 218.9083 15.22885132262998
SL-14 R/B               
1 14820U 84027B   26005.32710897  .00000759  00000+0  84037-4 0  9992
2 14820  82.5430 304.4376 0017888 178.3515 181.7763 14.85905517238223
SL-8 R/B                
1 15483U 85006B   26005.49832868  .00000421  00000+0  14839-3 0  9995
2 15483  74.0458  17.4201 0019627 305.2789 216.5044 14.37739683144940
SL-12 R/B(2)            
1 15772U 85042D   26005.33401043  .00000078  00000+0  56587-4 0  9991
2 15772  71.1068 221.5758 0036921 226.7213 306.0655 14.21959791105381
SL-14 R/B               
1 15945U 85069B   26005.46580882  .00000700  00000+0  76395-4 0  9996
2 15945  82.5268  84.3981 0019837  45.3626 314.9204 14.86356191163449
SL-16 R/B               
1 16182U 85097B   26005.17239376  .00000283  00000+0  16584-3 0  9997
2 16182  71.0032 274.2724 0008098 336.5401 185.9212 14.16588404 78237
SL-14 R/B               
1 16496U 86006B   26005.32429161  .00000956  00000+0  98825-4 0  9992
2 16496  82.5282 319.3607 0077999 122.1069 238.7750 14.86708457139797
COSMOS 1743             
1 16719U 86034A   26005.43237324  .00043272  00000+0  67106-3 0  9996
2 16719  82.5359 139.9562 0005097 160.2931 199.8521 15.53800915170411
