CCSDS_OMM_VERS = 2.0
CREATION_DATE  = 
ORIGINATOR     = 

OBJECT_NAME    = SL-3 R/B
OBJECT_ID      = 1982-079B
CENTER_NAME    = EARTH
REF_FRAME      = TEME
TIME_SYSTEM    = UTC
MEAN_ELEMENT_THEORY = SGP/SGP4

EPOCH          = 2026-01-05T10:52:08.914944
MEAN_MOTION    = 15.23931440
ECCENTRICITY   = .0026081
INCLINATION    = 81.1472
RA_OF_ASC_NODE = 267.7053
ARG_OF_PERICENTER = 22.5622
MEAN_ANOMALY   = 337.6751

EPHEMERIS_TYPE = 0
CLASSIFICATION_TYPE = U
NORAD_CAT_ID   = 13403
ELEMENT_SET_NO = 999
REV_AT_EPOCH   = 36806
BSTAR          = .30417E-3
MEAN_MOTION_DOT = .7448E-4
MEAN_MOTION_DDOT = 0

CCSDS_OMM_VERS = 2.0
CREATION_DATE  = 
ORIGINATOR     = 

OBJECT_NAME    = SL-14 R/B
OBJECT_ID      = 1982-092B
CENTER_NAME    = EARTH
REF_FRAME      = TEME
TIME_SYSTEM    = UTC
MEAN_ELEMENT_THEORY = SGP/SGP4

EPOCH          = 2026-01-05T12:03:42.767712
MEAN_MOTION    = 14.86584048
ECCENTRICITY   = .0021109
INCLINATION    = 82.5668
RA_OF_ASC_NODE = 200.4872
ARG_OF_PERICENTER = 147.3836
MEAN_ANOMALY   = 241.8401

EPHEMERIS_TYPE = 0
CLASSIFICATION_TYPE = U
NORAD_CAT_ID   = 13553
ELEMENT_SET_NO = 999
REV_AT_EPOCH   = 31954
BSTAR          = .77677E-4
MEAN_MOTION_DOT = .716E-5
MEAN_MOTION_DDOT = 0

CCSDS_OMM_VERS = 2.0
CREATION_DATE  = 
ORIGINATOR     = 

OBJECT_NAME    = SL-3 R/B
OBJECT_ID      = 1983-010B
CENTER_NAME    = EARTH
REF_FRAME      = TEME
TIME_SYSTEM    = UTC
MEAN_ELEMENT_THEORY = SGP/SGP4

EPOCH          = 2026-01-05T07:12:09.917856
MEAN_MOTION    = 15.44228349
ECCENTRICITY   = .0016195
INCLINATION    = 81.1040
RA_OF_ASC_NODE = 79.8465
ARG_OF_PERICENTER = 266.5146
MEAN_ANOMALY   = 93.4245

EPHEMERIS_TYPE = 0
CLASSIFICATION_TYPE = U
NORAD_CAT_ID   = 13819
ELEMENT_SET_NO = 999
REV_AT_EPOCH   = 34815
BSTAR          = .38773E-3
MEAN_MOTION_DOT = .17937E-3
MEAN_MOTION_DDOT = 0

CCSDS_OMM_VERS = 2.0
CREATION_DATE  = 
ORIGINATOR     = 

OBJECT_NAME    = SL-3 R/B
OBJECT_ID      = 1983-075B
CENTER_NAME    = EARTH
REF_FRAME      = TEME
TIME_SYSTEM    = UTC
MEAN_ELEMENT_THEORY = SGP/SGP4

EPOCH          = 2026-01-05T11:51:59.238432
MEAN_MOTION    = 15.36723475
ECCENTRICITY   = .0024549
INCLINATION    = 97.6108
RA_OF_ASC_NODE = 7.7843
ARG_OF_PERICENTER = 95.2590
MEAN_ANOMALY   = 265.1455

EPHEMERIS_TYPE = 0
CLASSIFICATION_TYPE = U
NORAD_CAT_ID   = 14208
ELEMENT_SET_NO = 999
REV_AT_EPOCH   = 32044
BSTAR          = .38028E-3
MEAN_MOTION_DOT = .13701E-3
MEAN_MOTION_DDOT = 0

CCSDS_OMM_VERS = 2.0
CREATION_DATE  = 
ORIGINATOR     = 

OBJECT_NAME    = COSMOS 1536
OBJECT_ID      = 1984-013A
CENTER_NAME    = EARTH
REF_FRAME      = TEME
TIME_SYSTEM    = UTC
MEAN_ELEMENT_THEORY = SGP/SGP4

EPOCH          = 2026-01-05T11:08:23.902656
MEAN_MOTION    = 15.22885132
ECCENTRICITY   = .0015332
INCLINATION    = 82.5454
RA_OF_ASC_NODE = 170.6310
ARG_OF_PERICENTER = 141.3255
MEAN_ANOMALY   = 218.9083

EPHEMERIS_TYPE = 0
CLASSIFICATION_TYPE = U
NORAD_CAT_ID   = 14699
ELEMENT_SET_NO = 999
REV_AT_EPOCH   = 26299
BSTAR          = .43717E-3
MEAN_MOTION_DOT = .1031E-3
MEAN_MOTION_DDOT = 0

CCSDS_OMM_VERS = 2.0
CREATION_DATE  = 
ORIGINATOR     = 

OBJECT_NAME    = SL-14 R/B
OBJECT_ID      = 1984-027B
CENTER_NAME    = EARTH
REF_FRAME      = TEME
TIME_SYSTEM    = UTC
MEAN_ELEMENT_THEORY = SGP/SGP4

EPOCH          = 2026-01-05T07:51:02.215008
MEAN_MOTION    = 14.85905517
ECCENTRICITY   = .0017888
INCLINATION    = 82.5430
RA_OF_ASC_NODE = 304.4376
ARG_OF_PERICENTER = 178.3515
MEAN_ANOMALY   = 181.7763

EPHEMERIS_TYPE = 0
CLASSIFICATION_TYPE = U
NORAD_CAT_ID   = 14820
ELEMENT_SET_NO = 999
REV_AT_EPOCH   = 23822
BSTAR          = .84037E-4
MEAN_MOTION_DOT = .759E-5
MEAN_MOTION_DDOT = 0

CCSDS_OMM_VERS = 2.0
CREATION_DATE  = 
ORIGINATOR     = 

OBJECT_NAME    = SL-8 R/B
OBJECT_ID      = 1985-006B
CENTER_NAME    = EARTH
REF_FRAME      = TEME
TIME_SYSTEM    = UTC
MEAN_ELEMENT_THEORY = SGP/SGP4

EPOCH          = 2026-01-05T11:57:35.597952
MEAN_MOTION    = 14.37739683
ECCENTRICITY   = .0019627
INCLINATION    = 74.0458
RA_OF_ASC_NODE = 17.4201
ARG_OF_PERICENTER = 305.2789
MEAN_ANOMALY   = 216.5044

EPHEMERIS_TYPE = 0
CLASSIFICATION_TYPE = U
NORAD_CAT_ID   = 15483
ELEMENT_SET_NO = 999
REV_AT_EPOCH   = 14494
BSTAR          = .14839E-3
MEAN_MOTION_DOT = .421E-5
MEAN_MOTION_DDOT = 0

CCSDS_OMM_VERS = 2.0
CREATION_DATE  = 
ORIGINATOR     = 

OBJECT_NAME    = SL-12 R/B(2)
OBJECT_ID      = 1985-042D
CENTER_NAME    = EARTH
REF_FRAME      = TEME
TIME_SYSTEM    = UTC
MEAN_ELEMENT_THEORY = SGP/SGP4

EPOCH          = 2026-01-05T08:00:58.501152
MEAN_MOTION    = 14.21959791
ECCENTRICITY   = .0036921
INCLINATION    = 71.1068
RA_OF_ASC_NODE = 221.5758
ARG_OF_PERICENTER = 226.7213
MEAN_ANOMALY   = 306.0655

EPHEMERIS_TYPE = 0
CLASSIFICATION_TYPE = U
NORAD_CAT_ID   = 15772
ELEMENT_SET_NO = 999
REV_AT_EPOCH   = 10538
BSTAR          = .56587E-4
MEAN_MOTION_DOT = .78E-6
MEAN_MOTION_DDOT = 0

CCSDS_OMM_VERS = 2.0
CREATION_DATE  = 
ORIGINATOR     = 

OBJECT_NAME    = SL-14 R/B
OBJECT_ID      = 1985-069B
CENTER_NAME    = EARTH
REF_FRAME      = TEME
TIME_SYSTEM    = UTC
MEAN_ELEMENT_THEORY = SGP/SGP4

EPOCH          = 2026-01-05T11:10:45.882048
MEAN_MOTION    = 14.86356191
ECCENTRICITY   = .0019837
INCLINATION    = 82.5268
RA_OF_ASC_NODE = 84.3981
ARG_OF_PERICENTER = 45.3626
MEAN_ANOMALY   = 314.9204

EPHEMERIS_TYPE = 0
CLASSIFICATION_TYPE = U
NORAD_CAT_ID   = 15945
ELEMENT_SET_NO = 999
REV_AT_EPOCH   = 16344
BSTAR          = .76395E-4
MEAN_MOTION_DOT = .7E-5
MEAN_MOTION_DDOT = 0

CCSDS_OMM_VERS = 2.0
CREATION_DATE  = 
ORIGINATOR     = 

OBJECT_NAME    = SL-16 R/B
OBJECT_ID      = 1985-097B
CENTER_NAME    = EARTH
REF_FRAME      = TEME
TIME_SYSTEM    = UTC
MEAN_ELEMENT_THEORY = SGP/SGP4

EPOCH          = 2026-01-05T04:08:14.820864
MEAN_MOTION    = 14.16588404
ECCENTRICITY   = .00080984
INCLINATION    = 71.0032
RA_OF_ASC_NODE = 274.2724
ARG_OF_PERICENTER = 336.5401
MEAN_ANOMALY   = 185.9212

EPHEMERIS_TYPE = 0
CLASSIFICATION_TYPE = U
NORAD_CAT_ID   = 16182
ELEMENT_SET_NO = 999
REV_AT_EPOCH   = 7823
BSTAR          = .16584414E-3
MEAN_MOTION_DOT = .283E-5
MEAN_MOTION_DDOT = 0

CCSDS_OMM_VERS = 2.0
CREATION_DATE  = 
ORIGINATOR     = 

OBJECT_NAME    = SL-14 R/B
OBJECT_ID      = 1986-006B
CENTER_NAME    = EARTH
REF_FRAME      = TEME
TIME_SYSTEM    = UTC
MEAN_ELEMENT_THEORY = SGP/SGP4

EPOCH          = 2026-01-05T07:46:58.795104
MEAN_MOTION    = 14.86708457
ECCENTRICITY   = .0077999
INCLINATION    = 82.5282
RA_OF_ASC_NODE = 319.3607
ARG_OF_PERICENTER = 122.1069
MEAN_ANOMALY   = 238.7750

EPHEMERIS_TYPE = 0
CLASSIFICATION_TYPE = U
NORAD_CAT_ID   = 16496
ELEMENT_SET_NO = 999
REV_AT_EPOCH   = 13979
BSTAR          = .98825E-4
MEAN_MOTION_DOT = .956E-5
MEAN_MOTION_DDOT = 0

CCSDS_OMM_VERS = 2.0
CREATION_DATE  = 
ORIGINATOR     = 

OBJECT_NAME    = COSMOS 1743
OBJECT_ID      = 1986-034A
CENTER_NAME    = EARTH
REF_FRAME      = TEME
TIME_SYSTEM    = UTC
MEAN_ELEMENT_THEORY = SGP/SGP4

EPOCH          = 2026-01-05T10:22:37.047936
MEAN_MOTION    = 15.53800915
ECCENTRICITY   = .0005097
INCLINATION    = 82.5359
RA_OF_ASC_NODE = 139.9562
ARG_OF_PERICENTER = 160.2931
MEAN_ANOMALY   = 199.8521

EPHEMERIS_TYPE = 0
CLASSIFICATION_TYPE = U
NORAD_CAT_ID   = 16719
ELEMENT_SET_NO = 999
REV_AT_EPOCH   = 17041
BSTAR          = .67106E-3
MEAN_MOTION_DOT = .43272E-3
MEAN_MOTION_DDOT = 0

